[{"OBJECT_NAME":"STARLINK-34667","OBJECT_ID":"2025-150AB","EPOCH":"2026-03-09T14:29:26.974752","MEAN_MOTION":14.9833428,"ECCENTRICITY":0.0003357,"INCLINATION":70.002,"RA_OF_ASC_NODE":134.6792,"ARG_OF_PERICENTER":272.4516,"MEAN_ANOMALY":87.6259,"EPHEMERIS_TYPE":0,"CLASSIFICATION_TYPE":"U","NORAD_CAT_ID":64815,"ELEMENT_SET_NO":999,"REV_AT_EPOCH":3650,"BSTAR":0.00043976,"MEAN_MOTION_DOT":5.159e-5,"MEAN_MOTION_DDOT":0},{"OBJECT_NAME":"CZ-6A DEB","OBJECT_ID":"2022-151CZ","EPOCH":"2026-03-09T17:45:53.210880","MEAN_MOTION":14.74921147,"ECCENTRICITY":0.01056164,"INCLINATION":98.7155,"RA_OF_ASC_NODE":150.3002,"ARG_OF_PERICENTER":236.2203,"MEAN_ANOMALY":122.891,"EPHEMERIS_TYPE":0,"CLASSIFICATION_TYPE":"U","NORAD_CAT_ID":54354,"ELEMENT_SET_NO":999,"REV_AT_EPOCH":17564,"BSTAR":0.0025923668,"MEAN_MOTION_DOT":0.00019034,"MEAN_MOTION_DDOT":0}]
